0 SL-16 DEB
1 25402U 98043J   13281.84780772  .00000259  00000-0  20243-3 0  4103
2 25402 099.0917 226.6004 0155563 004.3567 053.3852 13.95303064776291
0 SL-16 DEB
1 25402U 98043J   13283.85610748  .00000114  00000-0  10590-3 0  4116
2 25402 099.0921 228.5815 0155481 358.8627 061.2585 13.95305858776575
0 SL-16 DEB
1 25402U 98043J   13286.07884381 -.00000000  00000-0  29459-4 0  4120
2 25402 099.0926 230.7743 0155385 352.7696 066.2990 13.95307586776886
0 SL-16 DEB
1 25402U 98043J   13288.08705098  .00000053  00000-0  65064-4 0  4130
2 25402 099.0931 232.7552 0155240 347.2543 073.7613 13.95308277777167
0 SL-16 DEB
1 25402U 98043J   13290.75086961  .00000073  00000-0  78852-4 0  4140
2 25402 099.0935 235.3833 0155090 339.9479 134.4384 13.95308339777531
0 SL-16 DEB
1 25402U 98043J   13292.81141514  .00000150  00000-0  13030-3 0  4158
2 25402 099.0937 237.4164 0154966 334.3052 044.7965 13.95308324777824
0 SL-16 DEB
1 25402U 98043J   13294.82570530  .00000242  00000-0  19216-3 0  4160
2 25402 099.0938 239.4040 0154848 328.8055 082.7946 13.95308700778101
